[
    {
        "Altitude(m)": 604221.1933295109,
        "Argument of Periapsis(deg)": 0.0,
        "Eccentricity": 0.0,
        "Inclination(deg)": 60.0,
        "Latitude(deg)": 14.117183137845544,
        "Longitude(deg)": -106.6658407425733,
        "Mean Anomaly(deg)": -343.63640000000004,
        "RAAN(deg)": 345.0,
        "Satellite Name": "Test1 1519",
        "Satellite Number": 1519,
        "Semi-Major Axis(m)": 6980739.136638005,
        "Time(s)": 0
    },
    {
        "Altitude(m)": 604235.3338421497,
        "Argument of Periapsis(deg)": 0.00010418945913296404,
        "Eccentricity": 0.0,
        "Inclination(deg)": 60.0,
        "Latitude(deg)": 14.651579795416296,
        "Longitude(deg)": -106.3773936643423,
        "Mean Anomaly(deg)": -343.01629385453816,
        "RAAN(deg)": 344.99957995086027,
        "Satellite Name": "Test1 1519",
        "Satellite Number": 1519,
        "Semi-Major Axis(m)": 6980739.136638005,
        "Time(s)": 10
    },
    {
        "Altitude(m)": 604252.371456808,
        "Argument of Periapsis(deg)": 0.0002083789182659281,
        "Eccentricity": 0.0,
        "Inclination(deg)": 60.0,
        "Latitude(deg)": 15.185486641898123,
        "Longitude(deg)": -106.08734359253349,
        "Mean Anomaly(deg)": -342.39618770907634,
        "RAAN(deg)": 344.99915990172053,
        "Satellite Name": "Test1 1519",
        "Satellite Number": 1519,
        "Semi-Major Axis(m)": 6980739.136638005,
        "Time(s)": 20
    },
    {
        "Altitude(m)": 604272.2743448878,
        "Argument of Periapsis(deg)": 0.00031256837739889213,
        "Eccentricity": 0.0,
        "Inclination(deg)": 60.0,
        "Latitude(deg)": 15.718882372707503,
        "Longitude(deg)": -105.79562301512371,
        "Mean Anomaly(deg)": -341.7760815636145,
        "RAAN(deg)": 344.9987398525808,
        "Satellite Name": "Test1 1519",
        "Satellite Number": 1519,
        "Semi-Major Axis(m)": 6980739.136638005,
        "Time(s)": 30
    },
    {
        "Altitude(m)": 604295.0094030445,
        "Argument of Periapsis(deg)": 0.0004167578365318562,
        "Eccentricity": 0.0,
        "Inclination(deg)": 60.0,
        "Latitude(deg)": 16.251745347545324,
        "Longitude(deg)": -105.50216289748289,
        "Mean Anomaly(deg)": -341.15597541815265,
        "RAAN(deg)": 344.99831980344106,
        "Satellite Name": "Test1 1519",
        "Satellite Number": 1519,
        "Semi-Major Axis(m)": 6980739.136638005,
        "Time(s)": 40
    },
    {
        "Altitude(m)": 604320.5422721411,
        "Argument of Periapsis(deg)": 0.0005209472956648203,
        "Eccentricity": 0.0,
        "Inclination(deg)": 60.0,
        "Latitude(deg)": 16.784053574361735,
        "Longitude(deg)": -105.20689364679205,
        "Mean Anomaly(deg)": -340.53586927269083,
        "RAAN(deg)": 344.9978997543013,
        "Satellite Name": "Test1 1519",
        "Satellite Number": 1519,
        "Semi-Major Axis(m)": 6980739.136638005,
        "Time(s)": 50
    },
    {
        "Altitude(m)": 604348.8373567654,
        "Argument of Periapsis(deg)": 0.0006251367547977843,
        "Eccentricity": 0.0,
        "Inclination(deg)": 60.0,
        "Latitude(deg)": 17.31578469283607,
        "Longitude(deg)": -104.90974456273611,
        "Mean Anomaly(deg)": -339.915763127229,
        "RAAN(deg)": 344.99747970516154,
        "Satellite Name": "Test1 1519",
        "Satellite Number": 1519,
        "Semi-Major Axis(m)": 6980739.136638005,
        "Time(s)": 60
    },
    {
        "Altitude(m)": 604379.8578453355,
        "Argument of Periapsis(deg)": 0.0007293262139307483,
        "Eccentricity": 0.0,
        "Inclination(deg)": 60.0,
        "Latitude(deg)": 17.84691595735071,
        "Longitude(deg)": -104.61064328731653,
        "Mean Anomaly(deg)": -339.2956569817672,
        "RAAN(deg)": 344.99705965602186,
        "Satellite Name": "Test1 1519",
        "Satellite Number": 1519,
        "Semi-Major Axis(m)": 6980739.136638005,
        "Time(s)": 70
    },
    {
        "Altitude(m)": 604413.5657307679,
        "Argument of Periapsis(deg)": 0.0008335156730637124,
        "Eccentricity": 0.0,
        "Inclination(deg)": 60.0,
        "Latitude(deg)": 18.377424219435795,
        "Longitude(deg)": -104.30951676663358,
        "Mean Anomaly(deg)": -338.6755508363054,
        "RAAN(deg)": 344.99663960688207,
        "Satellite Name": "Test1 1519",
        "Satellite Number": 1519,
        "Semi-Major Axis(m)": 6980739.136638005,
        "Time(s)": 80
    },
    {
        "Altitude(m)": 604449.9218317533,
        "Argument of Periapsis(deg)": 0.0009377051321966765,
        "Eccentricity": 0.0,
        "Inclination(deg)": 60.0,
        "Latitude(deg)": 18.907285909657727,
        "Longitude(deg)": -104.00629069886895,
        "Mean Anomaly(deg)": -338.05544469084356,
        "RAAN(deg)": 344.99621955774234,
        "Satellite Name": "Test1 1519",
        "Satellite Number": 1519,
        "Semi-Major Axis(m)": 6980739.136638005,
        "Time(s)": 90
    },
    {
        "Altitude(m)": 604488.885814524,
        "Argument of Periapsis(deg)": 0.0010418945913296407,
        "Eccentricity": 0.0,
        "Inclination(deg)": 60.0,
        "Latitude(deg)": 19.436477018927153,
        "Longitude(deg)": -103.7008889813208,
        "Mean Anomaly(deg)": -337.4353385453817,
        "RAAN(deg)": 344.9957995086026,
        "Satellite Name": "Test1 1519",
        "Satellite Number": 1519,
        "Semi-Major Axis(m)": 6980739.136638005,
        "Time(s)": 100
    },
    {
        "Altitude(m)": 604530.4162152042,
        "Argument of Periapsis(deg)": 0.0011460840504626045,
        "Eccentricity": 0.0,
        "Inclination(deg)": 60.0,
        "Latitude(deg)": 19.964973079200625,
        "Longitude(deg)": -103.39323466934361,
        "Mean Anomaly(deg)": -336.8152323999199,
        "RAAN(deg)": 344.99537945946287,
        "Satellite Name": "Test1 1519",
        "Satellite Number": 1519,
        "Semi-Major Axis(m)": 6980739.136638005,
        "Time(s)": 110
    },
    {
        "Altitude(m)": 604574.470462665,
        "Argument of Periapsis(deg)": 0.0012502735095955685,
        "Eccentricity": 0.0,
        "Inclination(deg)": 60.0,
        "Latitude(deg)": 20.492749143548313,
        "Longitude(deg)": -103.08324942142893,
        "Mean Anomaly(deg)": -336.19512625445805,
        "RAAN(deg)": 344.99495941032313,
        "Satellite Name": "Test1 1519",
        "Satellite Number": 1519,
        "Semi-Major Axis(m)": 6980739.136638005,
        "Time(s)": 120
    },
    {
        "Altitude(m)": 604621.0049019136,
        "Argument of Periapsis(deg)": 0.0013544629687285324,
        "Eccentricity": 0.0,
        "Inclination(deg)": 60.0,
        "Latitude(deg)": 21.019779765559154,
        "Longitude(deg)": -102.77085294328477,
        "Mean Anomaly(deg)": -335.57502010899617,
        "RAAN(deg)": 344.99453936118334,
        "Satellite Name": "Test1 1519",
        "Satellite Number": 1519,
        "Semi-Major Axis(m)": 6980739.136638005,
        "Time(s)": 130
    },
    {
        "Altitude(m)": 604669.9748179602,
        "Argument of Periapsis(deg)": 0.0014586524278614966,
        "Eccentricity": 0.0,
        "Inclination(deg)": 60.0,
        "Latitude(deg)": 21.546038978056654,
        "Longitude(deg)": -102.45596394377247,
        "Mean Anomaly(deg)": -334.95491396353435,
        "RAAN(deg)": 344.9941193120436,
        "Satellite Name": "Test1 1519",
        "Satellite Number": 1519,
        "Semi-Major Axis(m)": 6980739.136638005,
        "Time(s)": 140
    },
    {
        "Altitude(m)": 604721.3344601946,
        "Argument of Periapsis(deg)": 0.0015628418869944607,
        "Eccentricity": 0.0,
        "Inclination(deg)": 60.0,
        "Latitude(deg)": 22.071500271094134,
        "Longitude(deg)": -102.13849957694471,
        "Mean Anomaly(deg)": -334.33480781807253,
        "RAAN(deg)": 344.99369926290393,
        "Satellite Name": "Test1 1519",
        "Satellite Number": 1519,
        "Semi-Major Axis(m)": 6980739.136638005,
        "Time(s)": 150
    },
    {
        "Altitude(m)": 604775.0370672162,
        "Argument of Periapsis(deg)": 0.0016670313461274247,
        "Eccentricity": 0.0,
        "Inclination(deg)": 60.0,
        "Latitude(deg)": 22.59613656919869,
        "Longitude(deg)": -101.81837488305132,
        "Mean Anomaly(deg)": -333.7147016726107,
        "RAAN(deg)": 344.99327921376414,
        "Satellite Name": "Test1 1519",
        "Satellite Number": 1519,
        "Semi-Major Axis(m)": 6980739.136638005,
        "Time(s)": 160
    },
    {
        "Altitude(m)": 604831.0348921611,
        "Argument of Periapsis(deg)": 0.0017712208052603888,
        "Eccentricity": 0.0,
        "Inclination(deg)": 60.0,
        "Latitude(deg)": 23.11992020783542,
        "Longitude(deg)": -101.4955037413791,
        "Mean Anomaly(deg)": -333.09459552714884,
        "RAAN(deg)": 344.9928591646244,
        "Satellite Name": "Test1 1519",
        "Satellite Number": 1519,
        "Semi-Major Axis(m)": 6980739.136638005,
        "Time(s)": 170
    },
    {
        "Altitude(m)": 604889.2792284241,
        "Argument of Periapsis(deg)": 0.001875410264393353,
        "Eccentricity": 0.0,
        "Inclination(deg)": 60.0,
        "Latitude(deg)": 23.642822909055674,
        "Longitude(deg)": -101.16979830918343,
        "Mean Anomaly(deg)": -332.4744893816871,
        "RAAN(deg)": 344.9924391154847,
        "Satellite Name": "Test1 1519",
        "Satellite Number": 1519,
        "Semi-Major Axis(m)": 6980739.136638005,
        "Time(s)": 180
    },
    {
        "Altitude(m)": 604949.7204358786,
        "Argument of Periapsis(deg)": 0.0019795997235263173,
        "Eccentricity": 0.0,
        "Inclination(deg)": 60.0,
        "Latitude(deg)": 24.16481575629972,
        "Longitude(deg)": -100.84116845958638,
        "Mean Anomaly(deg)": -331.8543832362252,
        "RAAN(deg)": 344.99201906634494,
        "Satellite Name": "Test1 1519",
        "Satellite Number": 1519,
        "Semi-Major Axis(m)": 6980739.136638005,
        "Time(s)": 190
    }
]